HORYU-4                 
1 41340U 16012D   20258.97664824  .00000387  00000-0  22458-4 0  9998
2 41340  31.0047 121.6491 0014009 316.5918  43.3614 15.01553780251341
E-ST@R-II               
1 41459U 16025D   20259.52567010  .00001489  00000-0  78815-4 0  9996
2 41459  98.1117  14.2573 0163002 268.4490  89.8064 15.06629574241006
AAUSAT 4                
1 41460U 16025E   20259.58879334  .00001803  00000-0  91494-4 0  9997
2 41460  98.1090  16.9830 0151775 255.8993 102.5268 15.09022838241232
BEESAT-4                
1 41619U 16040W   20259.17468783  .00001150  00000-0  49988-4 0  9993
2 41619  97.3112 316.5553 0009985 215.7684 144.2886 15.24219785223068
CANX-7                  
1 41788U 16059F   20259.48749569  .00005509  00000-0  74086-3 0  9996
2 41788  98.2576 349.6940 0023041  21.8943 338.3271 14.79498468213125
RAVAN                   
1 41849U 16067B   20259.34891650 -.00000176  00000-0 -94983-5 0  9994
2 41849  97.9420  10.7712 0007271 314.8223  45.2407 14.98637000210088
CELTEE 1                
1 41850U 16067C   20259.29389984 -.00000164  00000-0 -88853-5 0  9998
2 41850  97.9334   8.1718 0007951 314.7986  45.2588 14.97220123209947
OPTICUBE 04             
1 41851U 16067D   20259.30699421  .00000211  00000-0  23685-4 0  9993
2 41851  97.9321   7.7541 0007747 316.9784  43.0831 14.96948147209923
AEROCUBE 8D             
1 41852U 16067E   20259.25661306  .00000760  00000-0  71427-4 0  9995
2 41852  97.9334   7.5445 0008278 319.1662  40.8938 14.96955852209899
AEROCUBE 8C             
1 41853U 16067F   20259.55765341 -.00000178  00000-0 -10183-4 0  9990
2 41853  97.9325   7.7462 0009128 317.2565  42.7946 14.96916938209934
PROMETHEUS 2-1          
1 41854U 16067G   20259.30680164  .00000419  00000-0  41474-4 0  9996
2 41854  97.9331   7.8786 0009085 315.8121  44.2374 14.97259596209917
PROMETHEUS 2-3          
1 41855U 16067H   20259.23984600  .00000425  00000-0  41963-4 0  9991
2 41855  97.9333   7.8478 0009285 316.3669  43.6817 14.97268585209905
INS-1B                  
1 41954U 17008G   20259.24782798  .00001074  00000-0  45871-4 0  9995
2 41954  97.3464 322.0117 0008577 355.8345   4.2820 15.24978034199057
BGUSAT                  
1 41999U 17008BD  20259.14448588  .00001750  00000-0  67063-4 0  9997
2 41999  97.3589 326.5716 0007617   6.1272 354.0060 15.27836158198646
DIDO-2                  
1 42000U 17008BE  20259.16465902  .00000717  00000-0  31897-4 0  9990
2 42000  97.3472 322.4006 0008642  15.7970 344.3535 15.24615312198438
PEASSS                  
1 42015U 17008BV  20259.13960208  .00000869  00000-0  36792-4 0  9999
2 42015  97.3501 324.1627 0006649  22.1272 338.0252 15.25792104199025
AL-FARABI 1             
1 42016U 17008BW  20259.17548980  .00001230  00000-0  49616-4 0  9995
2 42016  97.3531 325.3948 0006429  21.5046 338.6461 15.26684574199217
NAYIF-1 (EO-88)         
1 42017U 17008BX  20259.41393523  .00001218  00000-0  49084-4 0  9999
2 42017  97.3526 325.6396 0006444  20.1131 340.0361 15.26727825199278
UCLSAT                  
1 42765U 17036A   20259.13293068  .00000915  00000-0  40907-4 0  9990
2 42765  97.2924 310.9322 0012890  73.3203 286.9448 15.23706526179642
LITUANICASAT-2          
1 42768U 17036D   20259.14004000  .00001625  00000-0  68973-4 0  9992
2 42768  97.2984 311.0608 0016006  63.5538 296.7340 15.24378272179504
AALTO-1                 
1 42775U 17036L   20259.20081817  .00000642  00000-0  31066-4 0  9999
2 42775  97.2898 308.5575 0015369  67.2785 293.0075 15.21962324179325
URSA MAIOR              
1 42776U 17036M   20259.11331427  .00000637  00000-0  30665-4 0  9993
2 42776  97.2911 308.7967 0015174  67.2575 293.0263 15.22154816179329
COMPASS 2               
1 42777U 17036N   20259.10705399  .00001294  00000-0  55906-4 0  9991
2 42777  97.2971 311.4108 0013697  65.3344 294.9319 15.24171035179455
DIAMOND RED             
1 42783U 17036U   20259.36595697  .00000785  00000-0  36230-4 0  9997
2 42783  97.2923 310.3323 0013625  74.6078 285.6663 15.22987813179438
PEGASUS                 
1 42784U 17036V   20259.37377044  .00000956  00000-0  42993-4 0  9996
2 42784  97.2929 310.8192 0013458  73.4329 286.8385 15.23387505179464
DIAMOND GREEN           
1 42785U 17036W   20259.10197567  .00000767  00000-0  35474-4 0  9994
2 42785  97.2926 310.1144 0013543  76.0191 284.2551 15.22982676179380
DIAMOND BLUE            
1 42786U 17036X   20259.36395117  .00000794  00000-0  36617-4 0  9994
2 42786  97.2925 310.3635 0013381  75.4698 284.8023 15.22987900179501
NUDTSAT                 
1 42787U 17036Y   20259.61365064  .00001590  00000-0  66824-4 0  9999
2 42787  97.2968 312.6629 0012850  65.2997 294.9577 15.24787244179435
SUCHAI                  
1 42788U 17036Z   20259.36466454  .00001086  00000-0  47644-4 0  9996
2 42788  97.2937 311.4843 0012975  71.9846 288.2805 15.23970034179577
SKCUBE                  
1 42789U 17036AA  20259.15778326  .00001044  00000-0  46139-4 0  9990
2 42789  97.2932 311.1072 0012869  72.9751 287.2895 15.23797372179459
VZLUSAT-1               
1 42790U 17036AB  20259.14418912  .00001299  00000-0  55173-4 0  9993
2 42790  97.2959 312.1992 0012311  70.8247 289.4323 15.24764359179518
ROBUSTA-1B              
1 42792U 17036AD  20259.10022243  .00001035  00000-0  45515-4 0  9996
2 42792  97.2934 311.3312 0012456  73.5096 286.7509 15.23996142179479
CICERO 6                
1 42793U 17036AE  20259.12735871  .00000657  00000-0  30578-4 0  9999
2 42793  97.2909 310.6447 0011828  75.9738 284.2814 15.23279553179511
D-SAT                   
1 42794U 17036AF  20259.08457025  .00000220  00000-0  24139-4 0  9999
2 42794  97.4881 287.2756 0127568  66.1546 295.2983 14.91318004176057
CORVUS BC2              
1 42846U 17042X   20259.56991758  .00000063  00000-0  11360-4 0  9990
2 42846  97.5091 139.0028 0009213 346.7882  13.3095 14.92136371172843
CORVUS BC1              
1 42847U 17042Y   20259.22421067  .00000258  00000-0  30450-4 0  9992
2 42847  97.5094 138.8592 0008859 347.4678  12.6320 14.92238049172798
MIRATA                  
1 43015U 17073C   20259.27387969  .00000664  00000-0  55881-4 0  9997
2 43015  97.7123 168.0614 0254056 115.3685 247.4066 14.79782204152507
MAKERSAT 0              
1 43016U 17073D   20259.26271943  .00000450  00000-0  39631-4 0  9999
2 43016  97.7158 168.2120 0256983 116.7014 246.0754 14.79311796152482
DELLINGR (RBLE)         
1 43021U 98067NJ  20259.20374114  .00019725  00000-0  14478-3 0  9991
2 43021  51.6343 180.4006 0002104  76.4873 283.6360 15.73136704160984
AEROCUBE 7B (OCSD B)    
1 43042U 17071F   20259.53410515  .00003260  00000-0  78886-4 0  9993
2 43042  51.6391 344.3535 0004671  21.2486 338.8694 15.44207011156297
AEROCUBE 7C (OCSD C)    
1 43043U 17071G   20259.53899629  .00003240  00000-0  78543-4 0  9999
2 43043  51.6389 344.4014 0004935  24.9514 335.1711 15.44181444156261
CHEFSAT                 
1 43044U 17071H   20259.48826546  .00007162  00000-0  13496-3 0  9994
2 43044  51.6382 326.3778 0004831  30.5326 329.5944 15.49652263156509
ASGARDIA 1              
1 43049U 17071N   20259.46622685  .00003058  00000-0  74602-4 0  9992
2 43049  51.6403 344.0002 0002754  42.1461 317.9737 15.44189836156266
ISARA                   
1 43050U 17071P   20259.46978171  .00006460  00000-0  12772-3 0  9997
2 43050  51.6368 329.8586 0002826  41.2806 318.8396 15.48446764156451
PROPCUBE 2 (FAUNA)      
1 43052U 17071R   20259.48940767  .00003377  00000-0  80103-4 0  9999
2 43052  51.6392 341.9210 0002735  40.0923 320.0265 15.44691863156284
CORVUS BC3              
1 43118U 18004H   20259.15080279  .00000651  00000-0  30213-4 0  9995
2 43118  97.4370 328.6639 0011994  97.0909 263.1692 15.23487492148652
MICROMAS-2A             
1 43131U 18004W   20259.18907044  .00001579  00000-0  65044-4 0  9991
2 43131  97.4425 330.7645 0010802  95.3426 264.9045 15.25559248148776
SPACEBEE-4              
1 43139U 18004AE  20259.20923753  .00002500  00000-0  97123-4 0  9995
2 43139  97.4468 332.1936 0010142  95.9846 264.2549 15.26975797148852
SPACEBEE-3              
1 43140U 18004AF  20259.42563711  .00003104  00000-0  11638-3 0  9992
2 43140  97.4488 333.2452 0009807  94.2202 266.0158 15.27974984148938
SPACEBEE-2              
1 43141U 18004AG  20259.51727447  .00003374  00000-0  12495-3 0  9992
2 43141  97.4501 333.6559 0009752  93.3104 266.9251 15.28315822148964
SPACEBEE-1              
1 43142U 18004AH  20259.39751034  .00003598  00000-0  13149-3 0  9993
2 43142  97.4508 333.8533 0009697  93.3217 266.9132 15.28712769148957
CICERO 7                
1 43143U 18004AJ  20259.25418796  .00001498  00000-0  61847-4 0  9990
2 43143  97.4403 330.9897 0009017 102.6495 257.5752 15.25576032148807
GOMX-4B                 
1 43196U 18015E   20259.35192280  .00000318  00000-0  15858-4 0  9999
2 43196  97.4497  27.2656 0019592 143.5137 216.7440 15.24435914145599
GOMX-4A                 
1 43197U 18015F   20259.42599006  .00000602  00000-0  27234-4 0  9992
2 43197  97.4486  27.4612 0020029 144.6875 286.4861 15.24626076145626
UBAKUSAT                
1 43467U 98067NQ  20259.16129906  .00047139  00000-0  24037-3 0  9999
2 43467  51.6339 178.4260 0002455  98.2636 261.8644 15.80895236134276
CUBERRT                 
1 43546U 98067NU  20256.79904374  .00019231  00000-0  11453-3 0  9993
2 43546  51.6318 191.9489 0002741  79.0219 281.1090 15.77981989124014
TEMPEST-D               
1 43547U 98067NV  20259.36455177  .00005933  00000-0  67927-4 0  9994
2 43547  51.6351 217.5786 0005230  42.0765 318.0630 15.63733301123588
RAINCUBE                
1 43548U 98067NW  20259.20087790  .00052207  00000-0  27784-3 0  9992
2 43548  51.6293 186.9145 0004828  92.7899 267.3655 15.79904722124425
HALOSAT                 
1 43549U 98067NX  20259.20095995  .00048756  00000-0  27709-3 0  9990
2 43549  51.6337 188.5452 0004717  92.6996 267.4545 15.78479824123964
